ASTROCAST-0401          
1 55110U 23001DF  26068.71172895  .00009750  00000+0  37868-3 0  9995
2 55110  97.5547 160.5206 0008142 188.4231 171.6872 15.26258462176022
STARLINK-36546          
1 67459U 26008Q   26068.46611758  .00024039  00000+0  87950-3 0  9996
2 67459  43.0026 206.8678 0003774 299.9737  60.0740 15.27603549  9538
